[{"OBJECT_NAME":"GAOFEN-9 03","OBJECT_ID":"2020-039A","EPOCH":"2026-03-09T21:55:15.121344","MEAN_MOTION":15.30529116,"ECCENTRICITY":0.0013094,"INCLINATION":97.5219,"RA_OF_ASC_NODE":201.2158,"ARG_OF_PERICENTER":77.4533,"MEAN_ANOMALY":282.8172,"EPHEMERIS_TYPE":0,"CLASSIFICATION_TYPE":"U","NORAD_CAT_ID":45794,"ELEMENT_SET_NO":999,"REV_AT_EPOCH":31856,"BSTAR":0.00039258132,"MEAN_MOTION_DOT":0.00011544,"MEAN_MOTION_DDOT":0},{"OBJECT_NAME":"STARLINK-33936","OBJECT_ID":"2025-101M","EPOCH":"2026-03-09T03:31:39.035712","MEAN_MOTION":15.27589114,"ECCENTRICITY":0.00014476,"INCLINATION":43.0037,"RA_OF_ASC_NODE":0.908,"ARG_OF_PERICENTER":286.5421,"MEAN_ANOMALY":73.5271,"EPHEMERIS_TYPE":0,"CLASSIFICATION_TYPE":"U","NORAD_CAT_ID":64005,"ELEMENT_SET_NO":999,"REV_AT_EPOCH":4697,"BSTAR":0.0014286357,"MEAN_MOTION_DOT":0.00039271,"MEAN_MOTION_DDOT":0}]
